[{"OBJECT_NAME":"STARLINK-36889","OBJECT_ID":"2026-039W","EPOCH":"2026-03-05T04:00:01.999584","MEAN_MOTION":16.001327,"ECCENTRICITY":0.0001793,"INCLINATION":42.9979,"RA_OF_ASC_NODE":82.938,"ARG_OF_PERICENTER":272.7199,"MEAN_ANOMALY":149.7634,"EPHEMERIS_TYPE":0,"CLASSIFICATION_TYPE":"U","NORAD_CAT_ID":68006,"ELEMENT_SET_NO":999,"REV_AT_EPOCH":215,"BSTAR":-0.0027237,"MEAN_MOTION_DOT":-0.01457361,"MEAN_MOTION_DDOT":0.00065396},{"OBJECT_NAME":"STARLINK-36592","OBJECT_ID":"2026-039X","EPOCH":"2026-03-05T04:00:01.999584","MEAN_MOTION":16.00253032,"ECCENTRICITY":0.0001802,"INCLINATION":42.9978,"RA_OF_ASC_NODE":82.9351,"ARG_OF_PERICENTER":269.069,"MEAN_ANOMALY":154.7696,"EPHEMERIS_TYPE":0,"CLASSIFICATION_TYPE":"U","NORAD_CAT_ID":68007,"ELEMENT_SET_NO":999,"REV_AT_EPOCH":215,"BSTAR":-0.0026985,"MEAN_MOTION_DOT":-0.01453934,"MEAN_MOTION_DDOT":0.00065198},{"OBJECT_NAME":"STARLINK-36911","OBJECT_ID":"2026-039Y","EPOCH":"2026-03-05T04:00:01.999584","MEAN_MOTION":16.00350003,"ECCENTRICITY":0.0001778,"INCLINATION":42.9979,"RA_OF_ASC_NODE":82.9313,"ARG_OF_PERICENTER":267.8026,"MEAN_ANOMALY":157.5042,"EPHEMERIS_TYPE":0,"CLASSIFICATION_TYPE":"U","NORAD_CAT_ID":68008,"ELEMENT_SET_NO":999,"REV_AT_EPOCH":215,"BSTAR":-0.0025993,"MEAN_MOTION_DOT":-0.01408897,"MEAN_MOTION_DDOT":0.00061601},{"OBJECT_NAME":"STARLINK-36956","OBJECT_ID":"2026-039Z","EPOCH":"2026-03-05T04:00:01.999584","MEAN_MOTION":16.00499852,"ECCENTRICITY":0.0001687,"INCLINATION":42.9978,"RA_OF_ASC_NODE":82.9277,"ARG_OF_PERICENTER":273.1919,"MEAN_ANOMALY":153.4542,"EPHEMERIS_TYPE":0,"CLASSIFICATION_TYPE":"U","NORAD_CAT_ID":68009,"ELEMENT_SET_NO":999,"REV_AT_EPOCH":215,"BSTAR":-0.0026284,"MEAN_MOTION_DOT":-0.01436684,"MEAN_MOTION_DDOT":0.00063955},{"OBJECT_NAME":"STARLINK-36953","OBJECT_ID":"2026-039AA","EPOCH":"2026-03-05T04:00:01.999584","MEAN_MOTION":16.00764623,"ECCENTRICITY":0.0001708,"INCLINATION":42.9977,"RA_OF_ASC_NODE":82.9199,"ARG_OF_PERICENTER":268.3442,"MEAN_ANOMALY":161.3294,"EPHEMERIS_TYPE":0,"CLASSIFICATION_TYPE":"U","NORAD_CAT_ID":68010,"ELEMENT_SET_NO":999,"REV_AT_EPOCH":215,"BSTAR":-0.002598,"MEAN_MOTION_DOT":-0.01441885,"MEAN_MOTION_DDOT":0.00064567},{"OBJECT_NAME":"STARLINK-36991","OBJECT_ID":"2026-039AB","EPOCH":"2026-03-05T04:00:01.999584","MEAN_MOTION":16.0090455,"ECCENTRICITY":0.0001799,"INCLINATION":42.9977,"RA_OF_ASC_NODE":82.9164,"ARG_OF_PERICENTER":271.5785,"MEAN_ANOMALY":159.5508,"EPHEMERIS_TYPE":0,"CLASSIFICATION_TYPE":"U","NORAD_CAT_ID":68011,"ELEMENT_SET_NO":999,"REV_AT_EPOCH":215,"BSTAR":-0.0025721,"MEAN_MOTION_DOT":-0.01439226,"MEAN_MOTION_DDOT":0.00064446},{"OBJECT_NAME":"STARLINK-36936","OBJECT_ID":"2026-039AC","EPOCH":"2026-03-05T04:00:01.999584","MEAN_MOTION":16.01168674,"ECCENTRICITY":0.0001631,"INCLINATION":42.9976,"RA_OF_ASC_NODE":82.9086,"ARG_OF_PERICENTER":273.1418,"MEAN_ANOMALY":160.8803,"EPHEMERIS_TYPE":0,"CLASSIFICATION_TYPE":"U","NORAD_CAT_ID":68012,"ELEMENT_SET_NO":999,"REV_AT_EPOCH":215,"BSTAR":-0.0025676,"MEAN_MOTION_DOT":-0.01458653,"MEAN_MOTION_DDOT":0.00066246},{"OBJECT_NAME":"STARLINK-36967","OBJECT_ID":"2026-039AD","EPOCH":"2026-03-05T04:00:01.999584","MEAN_MOTION":16.00634205,"ECCENTRICITY":0.0001774,"INCLINATION":42.9975,"RA_OF_ASC_NODE":82.9237,"ARG_OF_PERICENTER":270.5695,"MEAN_ANOMALY":157.5295,"EPHEMERIS_TYPE":0,"CLASSIFICATION_TYPE":"U","NORAD_CAT_ID":68013,"ELEMENT_SET_NO":999,"REV_AT_EPOCH":215,"BSTAR":-0.0026212,"MEAN_MOTION_DOT":-0.01443829,"MEAN_MOTION_DDOT":0.00064635},{"OBJECT_NAME":"STARLINK-36985","OBJECT_ID":"2026-039AE","EPOCH":"2026-03-05T04:00:01.999584","MEAN_MOTION":16.01025524,"ECCENTRICITY":0.0001807,"INCLINATION":42.9976,"RA_OF_ASC_NODE":82.9126,"ARG_OF_PERICENTER":271.0012,"MEAN_ANOMALY":161.5208,"EPHEMERIS_TYPE":0,"CLASSIFICATION_TYPE":"U","NORAD_CAT_ID":68014,"ELEMENT_SET_NO":999,"REV_AT_EPOCH":215,"BSTAR":-0.0025486,"MEAN_MOTION_DOT":-0.01436161,"MEAN_MOTION_DDOT":0.00064279}]
