STARLINK-36889          
1 68006U 26039W   26064.16668981 -.01457361  65396-3 -27237-2 0  9997
2 68006  42.9979  82.9380 0001793 272.7199 149.7634 16.00132700  2151
STARLINK-36592          
1 68007U 26039X   26064.16668981 -.01453934  65198-3 -26985-2 0  9999
2 68007  42.9978  82.9351 0001802 269.0690 154.7696 16.00253032  2151
STARLINK-36911          
1 68008U 26039Y   26064.16668981 -.01408897  61601-3 -25993-2 0  9991
2 68008  42.9979  82.9313 0001778 267.8026 157.5042 16.00350003  2154
STARLINK-36956          
1 68009U 26039Z   26064.16668981 -.01436684  63955-3 -26284-2 0  9995
2 68009  42.9978  82.9277 0001687 273.1919 153.4542 16.00499852  2159
STARLINK-36953          
1 68010U 26039AA  26064.16668981 -.01441885  64567-3 -25980-2 0  9998
2 68010  42.9977  82.9199 0001708 268.3442 161.3294 16.00764623  2157
STARLINK-36991          
1 68011U 26039AB  26064.16668981 -.01439226  64446-3 -25721-2 0  9994
2 68011  42.9977  82.9164 0001799 271.5785 159.5508 16.00904550  2158
STARLINK-36936          
1 68012U 26039AC  26064.16668981 -.01458653  66246-3 -25676-2 0  9999
2 68012  42.9976  82.9086 0001631 273.1418 160.8803 16.01168674  2150
STARLINK-36967          
1 68013U 26039AD  26064.16668981 -.01443829  64635-3 -26212-2 0  9996
2 68013  42.9975  82.9237 0001774 270.5695 157.5295 16.00634205  2159
STARLINK-36985          
1 68014U 26039AE  26064.16668981 -.01436161  64279-3 -25486-2 0  9994
2 68014  42.9976  82.9126 0001807 271.0012 161.5208 16.01025524  2152
